MTI                     
1 26102U 00014A   18247.49537606  .00003268  00000-0  58445-4 0  9997
2 26102  97.5797  85.8573 0010059 102.0914 343.1208 15.50768977 23310
CFESAT                  
1 30777U 07006F   18246.88817838  .00001820  00000-0  56158-4 0  9999
2 30777  35.4253 153.7347 0005174  28.6440 331.4569 15.33671854636110
SPIRALE A               
1 33751U 09008C   18246.15918473 -.00000026  00000-0 -80788-4 0  9990
2 33751   2.0295 100.8185 5451572 197.2481 132.8613  4.58688668131281
SPIRALE B               
1 33752U 09008D   18246.56947403  .00001364  00000-0  35510-3 0  9997
2 33752   1.8115 119.1807 6937354 143.2030 294.2468  2.71997705 86876
SAPPHIRE                
1 39088U 13009C   18246.61764298 -.00000027  00000-0  60027-5 0  9995
2 39088  98.5233  89.2854 0012490  64.8848 295.3632 14.34180088288904
